ORBCOMM FM37 [-]        
1 33064U 08031E   23276.63354038  .00003200  00000+0  49892-3 0  9999
2 33064  48.4413  51.8456 0006619 234.5622 222.1350 14.75142965822008
ORBCOMM FM40 [-]        
1 33065U 08031F   23276.81246122  .00004327  00000+0  64813-3 0  9995
2 33065  48.4440  42.2676 0008073 242.2445 247.8173 14.76185086822483
VESSELSAT 1 [-]         
1 37840U 11058C   23276.65353715  .00000473  00000+0  11414-3 0  9999
2 37840  19.9615 259.9240 0013740 179.7225 180.3188 14.11065553618492
ORBCOMM FM109 [+]       
1 40086U 14040A   23276.54536581  .00001253  00000+0  32000-3 0  9992
2 40086  47.0040  71.5540 0002029 314.0557  46.0160 14.55944713490266
ORBCOMM FM107 [+]       
1 40087U 14040B   23276.57957796  .00001267  00000+0  32326-3 0  9997
2 40087  47.0055  72.3241 0001936 276.7283  83.3381 14.55942864490349
ORBCOMM FM106 [-]       
1 40088U 14040C   23276.54289382  .00001727  00000+0  34436-3 0  9999
2 40088  47.0616 301.6211 0017425  58.2599 301.9986 14.66042634492015
ORBCOMM FM111 [-]       
1 40089U 14040D   23276.55123079  .00003735  00000+0  51053-3 0  9996
2 40089  47.0040 227.9254 0032794 104.3783 256.0755 14.80036303497817
ORBCOMM FM104 [-]       
1 40090U 14040E   23275.78078746  .00001079  00000+0  28930-3 0  9999
2 40090  47.0050 102.5829 0017719 240.3324 119.5796 14.54498537489808
